{
  "links" : {
    "next" : "https://api.nasa.gov/neo/rest/v1/feed?start_date=1995-03-23&end_date=1995-03-23&detailed=true&api_key=t0TVs3DtDT2H8Oy2Zy8m2eVrNsAVKAexjcZXUckd",
    "prev" : "https://api.nasa.gov/neo/rest/v1/feed?start_date=1995-03-21&end_date=1995-03-21&detailed=true&api_key=t0TVs3DtDT2H8Oy2Zy8m2eVrNsAVKAexjcZXUckd",
    "self" : "https://api.nasa.gov/neo/rest/v1/feed?start_date=1995-03-22&end_date=1995-03-22&detailed=true&api_key=t0TVs3DtDT2H8Oy2Zy8m2eVrNsAVKAexjcZXUckd"
  },
  "element_count" : 8,
  "near_earth_objects" : {
    "1995-03-22" : [ {
      "links" : {
        "self" : "https://api.nasa.gov/neo/rest/v1/neo/3747315?api_key=t0TVs3DtDT2H8Oy2Zy8m2eVrNsAVKAexjcZXUckd"
      },
      "neo_reference_id" : "3747315",
      "name" : "(2016 EM157)",
      "nasa_jpl_url" : "http://ssd.jpl.nasa.gov/sbdb.cgi?sstr=3747315",
      "absolute_magnitude_h" : 26.9,
      "estimated_diameter" : {
        "kilometers" : {
          "estimated_diameter_min" : 0.0110803882,
          "estimated_diameter_max" : 0.0247765013
        },
        "meters" : {
          "estimated_diameter_min" : 11.0803882126,
          "estimated_diameter_max" : 24.7765012606
        },
        "miles" : {
          "estimated_diameter_min" : 0.0068850319,
          "estimated_diameter_max" : 0.0153953994
        },
        "feet" : {
          "estimated_diameter_min" : 36.3529808636,
          "estimated_diameter_max" : 81.2877363957
        }
      },
      "is_potentially_hazardous_asteroid" : false,
      "close_approach_data" : [ {
        "close_approach_date" : "1995-03-22",
        "epoch_date_close_approach" : 795859200000,
        "relative_velocity" : {
          "kilometers_per_second" : "22.8246286413",
          "kilometers_per_hour" : "82168.6631087621",
          "miles_per_hour" : "51056.411807775"
        },
        "miss_distance" : {
          "astronomical" : "0.4729642584",
          "lunar" : "183.9830932617",
          "kilometers" : "70754448",
          "miles" : "43964776"
        },
        "orbiting_body" : "Earth"
      } ],
      "orbital_data" : {
        "orbit_id" : "5",
        "orbit_determination_date" : "2017-04-06 08:27:26",
        "orbit_uncertainty" : "7",
        "minimum_orbit_intersection" : ".00602602",
        "jupiter_tisserand_invariant" : "6.938",
        "epoch_osculation" : "2458000.5",
        "eccentricity" : ".2997332703803507",
        "semi_major_axis" : ".8416315805242635",
        "inclination" : "10.27694002800109",
        "ascending_node_longitude" : "171.1772580572293",
        "orbital_period" : "282.0210086909677",
        "perihelion_distance" : ".5893665944383424",
        "perihelion_argument" : "218.2204921071237",
        "aphelion_distance" : "1.093896566610185",
        "perihelion_time" : "2457932.078607813163",
        "mean_anomaly" : "87.3399513801906",
        "mean_motion" : "1.276500646781531",
        "equinox" : "J2000"
      }
    }, {
      "links" : {
        "self" : "https://api.nasa.gov/neo/rest/v1/neo/3771614?api_key=t0TVs3DtDT2H8Oy2Zy8m2eVrNsAVKAexjcZXUckd"
      },
      "neo_reference_id" : "3771614",
      "name" : "(2017 FD1)",
      "nasa_jpl_url" : "http://ssd.jpl.nasa.gov/sbdb.cgi?sstr=3771614",
      "absolute_magnitude_h" : 21.424,
      "estimated_diameter" : {
        "kilometers" : {
          "estimated_diameter_min" : 0.1379605689,
          "estimated_diameter_max" : 0.3084892103
        },
        "meters" : {
          "estimated_diameter_min" : 137.9605689104,
          "estimated_diameter_max" : 308.4892102982
        },
        "miles" : {
          "estimated_diameter_min" : 0.0857246967,
          "estimated_diameter_max" : 0.1916862491
        },
        "feet" : {
          "estimated_diameter_min" : 452.6265529039,
          "estimated_diameter_max" : 1012.1037407146
        }
      },
      "is_potentially_hazardous_asteroid" : false,
      "close_approach_data" : [ {
        "close_approach_date" : "1995-03-22",
        "epoch_date_close_approach" : 795859200000,
        "relative_velocity" : {
          "kilometers_per_second" : "20.3742223265",
          "kilometers_per_hour" : "73347.2003754896",
          "miles_per_hour" : "45575.0979222036"
        },
        "miss_distance" : {
          "astronomical" : "0.2243809656",
          "lunar" : "87.2841949463",
          "kilometers" : "33566916",
          "miles" : "20857514"
        },
        "orbiting_body" : "Earth"
      } ],
      "orbital_data" : {
        "orbit_id" : "9",
        "orbit_determination_date" : "2017-06-15 06:20:02",
        "orbit_uncertainty" : "6",
        "minimum_orbit_intersection" : ".0890355",
        "jupiter_tisserand_invariant" : "4.955",
        "epoch_osculation" : "2458000.5",
        "eccentricity" : ".1478846210086852",
        "semi_major_axis" : "1.235912132943166",
        "inclination" : "39.40701510140626",
        "ascending_node_longitude" : "356.5439054824789",
        "orbital_period" : "501.8568085276265",
        "perihelion_distance" : "1.05313973556283",
        "perihelion_argument" : "218.6018120381645",
        "aphelion_distance" : "1.418684530323502",
        "perihelion_time" : "2457874.563840209925",
        "mean_anomaly" : "90.33855226043312",
        "mean_motion" : ".7173360884675185",
        "equinox" : "J2000"
      }
    } ]
  }
}